     2              NAVIGATION DATA                         RINEX VERSION / TYPE
CCRINEXN V1.6.0 UX  CDDIS               28-JAN-16 15:33     PGM / RUN BY / DATE 
IGS BROADCAST EPHEMERIS FILE                                COMMENT             
    0.1211D-07 -0.7451D-08 -0.5960D-07  0.5960D-07          ION ALPHA           
    0.1147D+06 -0.1311D+06 -0.2621D+06  0.7209D+06          ION BETA            
    0.186264514923D-08 0.124344978758D-13   405504     1881 DELTA-UTC: A0,A1,T,W
    17                                                      LEAP SECONDS        
                                                            END OF HEADER       
16 16  1 27 23 59 44.0-0.446713529527D-04 0.318323145621D-11 0.000000000000D+00
    0.200000000000D+02 0.586250000000D+02 0.380980155067D-08 0.808324209468D+00
    0.333599746227D-05 0.845822901465D-02 0.895187258720D-05 0.515369899940D+04
    0.345584000000D+06 0.260770320892D-07-0.206168874042D+01 0.106170773506D-06
    0.990773354350D+00 0.219531250000D+03 0.317869464356D+00-0.777318092704D-08
    0.560737642688D-10 0.100000000000D+01 0.188100000000D+04 0.000000000000D+00
    0.200000000000D+01 0.000000000000D+00-0.102445483208D-07 0.200000000000D+02
    0.338400000000D+06 0.400000000000D+01 0.000000000000D+00 0.000000000000D+00
24 16  1 27 23 59 44.0-0.114305876195D-04-0.568434188608D-12 0.000000000000D+00
    0.320000000000D+02-0.349687500000D+02 0.486055960467D-08-0.205136511187D+01
   -0.192783772945D-05 0.417586101685D-02 0.865571200848D-05 0.515363620949D+04
    0.345584000000D+06 0.651925802231D-07 0.308455304758D+01-0.651925802231D-07
    0.951097987609D+00 0.207187500000D+03 0.348565687160D+00-0.819748431527D-08
   -0.400730977768D-09 0.000000000000D+00 0.188100000000D+04 0.000000000000D+00
    0.200000000000D+01 0.000000000000D+00 0.232830643654D-08 0.320000000000D+02
    0.338400000000D+06 0.400000000000D+01 0.000000000000D+00 0.000000000000D+00
25 16  1 27 23 59 44.0-0.106883235276D-03-0.648014975013D-11 0.000000000000D+00
    0.600000000000D+01 0.714687500000D+02 0.396123642997D-08 0.228583462155D+01
    0.361353158951D-05 0.503052223939D-02 0.105686485767D-04 0.515357061958D+04
    0.345584000000D+06-0.104308128357D-06-0.212993225376D+01-0.745058059692D-07
    0.978618880890D+00 0.182593750000D+03 0.693219589893D+00-0.774175104643D-08
    0.160720980388D-09 0.000000000000D+00 0.188100000000D+04 0.000000000000D+00
    0.200000000000D+01 0.000000000000D+00 0.558793544769D-08 0.600000000000D+01
    0.342480000000D+06 0.400000000000D+01 0.000000000000D+00 0.000000000000D+00
27 16  1 27 23 59 44.0 0.573694705963D-04 0.352429196937D-11 0.000000000000D+00
    0.400000000000D+01 0.109375000000D+02 0.460304887832D-08-0.138888863130D+00
    0.443309545517D-06 0.309323263355D-02 0.338815152645D-05 0.515362867165D+04
    0.345584000000D+06 0.167638063431D-07-0.108731621333D+01 0.391155481338D-07
    0.969852913375D+00 0.317062500000D+03 0.208021560019D+00-0.835534803378D-08
    0.196436753808D-10 0.100000000000D+01 0.188100000000D+04 0.000000000000D+00
    0.200000000000D+01 0.000000000000D+00 0.139698386192D-08 0.400000000000D+01
    0.342420000000D+06 0.400000000000D+01 0.000000000000D+00 0.000000000000D+00
